STARLINK-1410_new
1 15705C 20035BA  21326.14547469  .00006302  00000-0  42227-3 0  3260
2 15705  53.0534 268.0999 0001816  64.3788  12.3211 15.06390915    18
STARLINK-1410_old
1 25705C 20035BA  21325.11061518 -.00020556  00000-0 -13773-2 0  3253
2 25705  53.0533 272.7455 0001835  64.5181 156.9817 15.06419596    10
